state,name,lon,lat,region,ID,cluster
NE,Petersburg,-98.015694,41.861393,MW,42531,5
NE,Prairie Breeze II,-97.931793,41.966003,MW,44297,5
OK,Goodwell,-101.619347,36.535095,MW,20523,19
SD,Tatanka,-98.994072,45.899895,MW,55555,9
OK,Keenan II,-99.513893,36.280994,MW,27669,2
OK,Elk City II,-99.688591,35.513393,MW,16556,2
OK,Balko Wind,-100.800743,36.541363,MW,2572,2
KS,Cedar Bluff,-99.737396,38.651859,MW,10666,2
OK,Centennial Wind Farm,-99.657188,36.646893,MW,11393,2
OK,Weatherford Wind Energy Center,-98.786194,35.54949600000001,MW,59351,2
OK,Rush Springs Wind Energy Center,-97.725182,34.676815000000005,MW,48564,0
KS,Buckeye,-99.415382,38.976212,MW,7410,2
SD,Oak Tree,-97.741501,44.933453,MW,39118,17
KS,Caney River,-96.442894,37.397491,MW,9574,0
OK,Mammoth Plains,-98.679131,35.946793,MW,32647,2
NE,Broken Bow I,-99.490189,41.419693,MW,7022,14
ND,Bison Wind 2,-101.673088,46.95549000000001,MW,4654,4
OK,Mammoth Plains,-98.658051,35.936405,MW,32657,2
NE,Grande Prairie,-98.533012,42.586334,MW,21022,5
KS,Flat Ridge 2,-98.32029,37.363194,MW,17779,7
KS,Smoky Hills II,-98.194595,38.910194,MW,51870,1
KS,Slate Creek,-97.24472,37.087509,MW,51695,0
OK,Chisholm View,-97.535194,36.590996,MW,12198,0
OK,Osage Wind,-96.71022,36.71788400000001,MW,40083,0
OK,Kay Wind,-97.2313,36.923935,MW,27483,0
OK,Chisholm View II,-97.72319,36.511112,MW,12314,0
OK,Balko Wind,-100.806984,36.505657,MW,2604,2
OK,Elk City II,-99.667091,35.455994,MW,16558,2
KS,Central Plains,-101.188591,38.532093,MW,11481,8
KS,Waverly,-95.616371,38.353191,MW,59176,13
ND,Sunflower,-102.040482,46.82848,MW,54866,4
SD,Tatanka,-98.986893,45.938892,MW,55622,9
ND,Rugby,-99.958893,48.475891,MW,48258,6
OK,Canadian Hills,-98.163589,35.697594,MW,9464,0
KS,Cimarron Bend I,-99.938606,37.391716,MW,12407,2
KS,Buckeye,-99.48568,39.014084,MW,7395,2
SD,Day County Wind Project,-97.888992,45.229393,MW,14439,17
KS,Cedar Bluff,-99.806099,38.633041,MW,10679,2
ND,Bison Wind 3,-101.579689,46.916393,MW,4678,4
OK,OK Wind Energy Center(mooreland),-99.320297,36.60214600000001,MW,38982,2
OK,Osage Wind,-96.713875,36.706104,MW,40060,0
OK,Blackwell,-97.417595,36.826893,MW,5066,0
KS,Cimarron I,-100.280388,37.879593,MW,12555,2
OK,OK Wind Energy Center(mooreland),-99.286224,36.554428,MW,38935,2
SD,Buffalo Ridge II,-96.60849,44.524193,MW,8127,11
KS,Kingman Wind Energy Center,-98.142082,37.550529,MW,28319,7
OK,Chisholm View,-97.766289,36.597595,MW,12262,0
OK,Keenan II,-99.492393,36.269794,MW,27650,2
OK,Osage Wind,-96.639702,36.722202,MW,40069,0
KS,Cimarron Bend I,-99.899475,37.361107,MW,12431,2
KS,Western Plains,-99.617844,37.874283,MW,59610,2
OK,Canadian Hills,-98.010895,35.642193,MW,9409,0
KS,Caney River,-96.45829,37.413094,MW,9516,0
ND,Luverne,-97.885788,47.367493,MW,32323,3
ND,Langdon - OTP,-98.238792,48.714993,MW,29382,15
KS,Post Rock,-98.307289,38.898495,MW,44008,1
OK,Mammoth Plains,-98.663979,36.011963,MW,32706,2
OK,Seiling 2,-99.011024,36.169643,MW,49998,2
OK,Big Smile Wind Farm at Dempsey Ridge,-99.75499,35.532593,MW,3933,2
KS,Cimarron Bend II,-99.993591,37.346539,MW,12520,2
KS,Flat Ridge 2,-98.300491,37.356792,MW,17929,7
OK,Grant Plains,-97.739967,36.981491,MW,21481,0
OK,Osage Wind,-96.647499,36.709274,MW,40058,0
OK,Taloga,-98.931694,35.846794,MW,55460,2
OK,Breckinridge,-97.643272,36.443275,MW,6634,0
ND,Oliver County Wind Energy Center,-101.215988,47.18399,MW,39547,4
SD,Wessington Springs,-98.582291,44.011894,MW,59470,16
KS,Gray County Wind Farm Montezuma),-100.385895,37.577694,MW,21864,2
KS,Cimarron Bend II,-99.947823,37.391754,MW,12450,2
ND,Ashtabula Wind Center,-97.883591,47.12849,MW,2174,3
OK,Blue Canyon VI,-98.540794,34.900593,MW,5471,2
KS,Waverly,-95.574883,38.293537,MW,59187,13
OK,Frontier I,-97.113098,36.865086,MW,19183,0
KS,Smoky Hills II,-98.226593,38.870094,MW,51876,1
OK,Great Western,-99.476967,36.186382,MW,21968,2
NE,Prairie Breeze,-98.14579,41.968792,MW,44273,5
OK,Rocky Ridge I,-99.027191,35.112891999999995,MW,47284,2
KS,Cimarron II,-100.422493,37.867294,MW,12653,2
KS,Shooting Star,-99.424393,37.537895,MW,51164,2
OK,Seiling 2,-99.055382,36.164673,MW,49990,2
OK,Minco II,-98.021996,35.329494,MW,35588,0
NE,Steele Flats,-96.941391,40.025494,MW,53889,10
KS,Cedar Bluff,-99.750114,38.67065,MW,10590,2
ND,Brady Wind I,-102.611,46.719784,MW,6303,12
OK,Canadian Hills,-98.062988,35.643394,MW,9447,0
ND,Border Winds Project,-99.550758,48.98285300000001,MW,6246,6
OK,Seiling,-99.005943,36.133003,MW,49942,2
OK,Rocky Ridge I,-99.00959,35.185593,MW,47311,2
OK,OK Wind Energy Center(mooreland),-99.318344,36.602161,MW,38971,2
ND,Oliver III,-101.148384,46.974461,MW,39630,4
OK,Big Smile Wind Farm at Dempsey Ridge,-99.875595,35.546192,MW,3962,2
KS,Bloom,-99.954124,37.494495,MW,5190,2
ND,Baldwin,-100.710388,47.101994,MW,2519,18
OK,Grant Wind,-97.603935,36.921261,MW,21560,0
NE,Prairie Breeze,-98.198494,41.912594,MW,44185,5
ND,Border Winds Project,-99.532539,48.913101,MW,6251,6
ND,Baldwin,-100.690788,47.111591,MW,2536,18
ND,Prairie Winds ND 1,-101.265091,47.956993,MW,44649,4
OK,Weatherford Wind Energy Center,-98.721092,35.487293,MW,59333,2
OK,Great Western,-99.575554,36.14996,MW,21987,2
ND,Brady Wind II,-102.796486,46.582485,MW,6406,12
OK,Seiling,-99.054382,36.076374,MW,49897,2
ND,Ashtabula Wind Center,-97.909393,47.069393,MW,2083,3
NE,Grande Prairie,-98.498009,42.554512,MW,21147,5
KS,Gray County Wind Farm Montezuma),-100.405792,37.586494,MW,21853,2
ND,Ashtabula II,-97.910591,47.30809,MW,2004,3
OK,Taloga,-98.927094,35.853893,MW,55502,2
KS,Waverly,-95.667007,38.364006,MW,59233,13
KS,Ninnescah,-98.622856,37.590542,MW,37467,7
OK,Origin,-97.256401,34.41800300000001,MW,39968,0
ND,Langdon,-98.258186,48.579292,MW,29376,15
OK,Seiling 2,-98.953941,36.125065,MW,49978,2
ND,Courtenay,-98.612595,47.201199,MW,13360,9
KS,Ensign,-100.327988,37.619495,MW,17202,2
KS,Western Plains,-99.604553,37.856285,MW,59507,2
KS,Alexander,-99.542793,38.435001,MW,252,2
NE,Elkhorn Ridge,-97.664589,42.660393,MW,16736,5
OK,Big Smile Wind Farm at Dempsey Ridge,-99.82859,35.542995,MW,3948,2
OK,Seiling,-98.948959,36.096592,MW,49844,2
SD,Buffalo Ridge II,-96.616989,44.524193,MW,8069,11
KS,Elk River,-96.554192,37.58879500000001,MW,16653,0
KS,Meridian Way II,-97.770195,39.429691,MW,34297,1
OK,Origin,-97.279182,34.435326,MW,39990,0
OK,Drift Sand,-97.902733,34.823582,MW,15540,0
OK,Mammoth Plains,-98.624084,35.97636400000001,MW,32715,2
KS,Cimarron Bend II,-100.004517,37.378731,MW,12451,2
KS,Slate Creek,-97.290794,37.143459,MW,51693,0
OK,Taloga,-98.91909,35.868893,MW,55501,2
ND,Tatanka,-98.976784,45.965496,MW,55521,9
KS,Ninnescah,-98.563126,37.604309,MW,37546,7
KS,Ninnescah,-98.567017,37.605293,MW,37536,7
OK,Centennial Wind Farm,-99.5756,36.64146,MW,11413,2
OK,Centennial Wind Farm,-99.659988,36.645992,MW,11461,2
SD,Buffalo Ridge II,-96.651993,44.513191,MW,8088,11
