state,name,lon,lat,region,ID,cluster
NY,Noble Ellenburg,-74.004097,44.878693,NE,37872,2
NY,Marble River,-73.96219599999998,44.931492,NE,33118,2
NY,Noble Wethersfield,-78.242195,42.615093,NE,38037,3
NY,Noble Clinton,-73.998795,44.93779,NE,37818,2
NY,Orangeville Wind,-78.20369699999998,42.779991,NE,39649,3
NH,Granite Reliable Power,-71.320198,44.790291,NE,21427,1
NY,High Sheldon,-78.38409399999998,42.734993,NE,23956,3
ME,Rollins,-68.38780200000001,45.303192,NE,47653,4
NY,Noble Clinton,-73.995499,44.948193,NE,37797,2
NY,Maple Ridge,-75.546196,43.748791,NE,32971,0
NY,Howard,-77.504112,42.328938,NE,25564,3
NY,Maple Ridge,-75.550995,43.751591,NE,32985,0
NY,Noble Chateaugay,-74.023201,44.901093,NE,37731,2
NY,Noble Clinton,-73.992798,44.902592,NE,37778,2
NY,Marble River,-73.940498,44.884293,NE,33108,2
NY,Fenner Wind Power Project,-75.76709699999998,43.000992,NE,17546,6
ME,Oakfield Wind,-68.112297,46.091999,NE,39153,4
ME,Mars Hill,-67.813797,46.528992,NE,33379,4
MD,Roth Rock,-79.4655,39.256191,NE,48032,9
NY,High Sheldon,-78.412193,42.777992,NE,23900,3
NY,Hardscrabble,-74.904701,43.206791,NE,22895,6
NY,Maple Ridge (Lowville),-75.6353,43.835293,NE,33078,0
NY,Noble Clinton,-73.974602,44.893291,NE,37831,2
NY,Maple Ridge (Lowville),-75.599396,43.808392,NE,33005,0
ME,"Kibby Mountain, phase I",-70.53679699999998,45.40799000000001,NE,27806,11
ME,Mars Hill,-67.80806700000001,46.554146,NE,33380,4
ME,Stetson,-67.971497,45.554291,NE,54223,4
NY,Noble Wethersfield,-78.25039699999998,42.609493,NE,38041,3
NY,Noble Altona,-73.64209699999998,44.82169,NE,37584,2
ME,Rollins,-68.398697,45.327091,NE,47660,4
NY,Noble Bliss,-78.278999,42.552692,NE,37648,3
NY,Maple Ridge,-75.521194,43.699593,NE,32951,0
ME,Record Hill,-70.630302,44.656891,NE,45852,1
MA,Hoosac,-73.044197,42.730991,NE,24734,7
NY,Hardscrabble,-74.889,43.11359,NE,22884,6
NY,Marble River,-73.91179699999998,44.99559,NE,33125,2
NY,Noble Altona,-73.648399,44.817989,NE,37601,2
MD,Roth Rock,-79.439995,39.28289,NE,48021,9
ME,Saddleback Ridge,-70.36367,44.622372,NE,48720,1
NY,Munnsville,-75.574699,42.902493,NE,36926,6
MA,Berkshire Wind Power Project Phase II,-73.272575,42.596577,NE,3483,7
NY,Noble Ellenburg,-73.925995,44.86499,NE,37873,2
NY,Noble Clinton,-73.999199,44.894192,NE,37839,2
MD,Fair Wind,-79.398308,39.315174,NE,17349,9
ME,"Kibby Mountain, phase I",-70.533997,45.380192,NE,27796,11
NY,Hardscrabble,-74.898895,43.138191,NE,22900,6
ME,Rollins,-68.3871,45.30859,NE,47654,4
ME,Oakfield Wind,-68.144012,46.05173900000001,NE,39157,4
ME,Stetson,-67.977997,45.513191,NE,54203,4
NY,Maple Ridge (Lowville),-75.648399,43.793991,NE,33010,0
NY,Noble Chateaugay,-74.038696,44.87619,NE,37772,2
NY,Noble Wethersfield,-78.245094,42.659893,NE,38003,3
NY,Orangeville Wind,-78.261101,42.708893,NE,39660,3
NH,Granite Reliable Power,-71.31289699999998,44.776192,NE,21453,1
NY,Noble Chateaugay,-74.055801,44.905491,NE,37774,2
NY,Orangeville Wind,-78.23719799999998,42.754593,NE,39676,3
NY,Noble Altona,-73.650902,44.82159,NE,37602,2
NY,Noble Bliss,-78.216995,42.540894,NE,37641,3
NY,Steel Winds II,-78.8601,42.803291,NE,53854,3
NY,Maple Ridge (Lowville),-75.633995,43.80619,NE,33055,0
NY,High Sheldon,-78.426796,42.779491,NE,23922,3
NY,Noble Bliss,-78.27879300000002,42.544891,NE,37681,3
NY,Orangeville Wind,-78.236595,42.751991,NE,39651,3
NY,Noble Bliss,-78.235199,42.564991,NE,37667,3
ME,"Kibby Mountain, phase I",-70.537796,45.410393,NE,27811,11
NY,Noble Chateaugay,-74.033699,44.874992,NE,37734,2
NY,Maple Ridge (Lowville),-75.590797,43.82029,NE,33040,0
NY,Zotos,-76.967598,42.886192,NE,61638,3
NY,Orangeville Wind,-78.241196,42.729992,NE,39675,3
NY,Maple Ridge (Lowville),-75.61529499999997,43.77779,NE,33059,0
NY,Maple Ridge,-75.552399,43.76849,NE,32904,0
NY,Noble Clinton,-73.985802,44.910591,NE,37830,2
ME,Rollins,-68.36150400000001,45.397591,NE,47634,4
NH,Groton,-71.791298,43.74609,NE,22221,12
NY,Noble Ellenburg,-73.979401,44.864693,NE,37868,2
NY,Hardscrabble,-74.903297,43.128391,NE,22901,6
NY,Marble River,-73.92229499999998,44.87249,NE,33082,2
ME,Stetson Wind expansion,-67.960899,45.586891,NE,54242,4
ME,Oakfield Wind,-68.136963,46.075249,NE,39139,4
NY,Noble Wethersfield,-78.240494,42.659893,NE,37994,3
NY,Noble Clinton,-74.007797,44.923492,NE,37806,2
NH,Granite Reliable Power,-71.304802,44.846092,NE,21443,1
NY,Maple Ridge,-75.511299,43.696091,NE,32975,0
NY,Noble Ellenburg,-74.003799,44.87569000000001,NE,37891,2
NY,Noble Wethersfield,-78.231697,42.612392,NE,38001,3
NY,Noble Wethersfield,-78.291901,42.602192,NE,38056,3
NY,Noble Wethersfield,-78.30109399999998,42.599693,NE,38043,3
ME,Bull Hill,-68.153702,44.70179,NE,8319,10
NY,Noble Bliss,-78.254898,42.522991,NE,37700,3
ME,Bull Hill,-68.1623,44.730789,NE,8325,10
ME,Bull Hill,-68.15100100000001,44.735291,NE,8315,10
NY,Munnsville,-75.562599,42.952991,NE,36922,6
NY,Noble Clinton,-74.0037,44.908092,NE,37802,2
ME,Oakfield Wind,-68.094864,46.095619,NE,39129,4
MD,Criterion,-79.327896,39.379494,NE,13667,9
ME,Stetson,-67.977501,45.522289,NE,54212,4
MD,Criterion,-79.27268199999997,39.421104,NE,13659,9
ME,Oakfield Wind,-68.076759,46.071251,NE,39125,4
NY,Noble Ellenburg,-73.999001,44.87479,NE,37851,2
ME,Stetson,-67.974998,45.545391,NE,54224,4
NY,Noble Chateaugay,-74.02109499999997,44.877392,NE,37750,2
ME,Mars Hill,-67.814903,46.535091,NE,33377,4
NY,Maple Ridge (Lowville),-75.635597,43.821491,NE,33043,0
NY,Noble Altona,-73.6269,44.80439000000001,NE,37638,2
NY,Hardscrabble,-74.89119699999998,43.127491,NE,22894,6
NY,Noble Ellenburg,-73.977997,44.86869,NE,37875,2
MD,Roth Rock,-79.461899,39.259193,NE,48024,9
NY,Maple Ridge,-75.517799,43.721092,NE,32944,0
NY,Hardscrabble,-74.90439599999998,43.12258900000001,NE,22872,6
NY,Orangeville Wind,-78.264496,42.748291,NE,39654,3
MA,Hull Wind Phase II,-70.85659799999998,42.261192,NE,25586,8
NY,Munnsville,-75.541,42.947392,NE,36921,6
MA,Berkshire Wind,-73.274597,42.58989,NE,3480,7
MA,University of Massachussetts Dartmouth,-71.010597,41.62669,NE,58065,5
NY,Hardscrabble,-74.9049,43.088791,NE,22883,6
NY,Maple Ridge (Lowville),-75.629395,43.785591,NE,33032,0
NY,Marble River,-73.941597,44.88839,NE,33141,2
ME,Kibby Mountain II,-70.547096,45.32869,NE,27791,11
ME,Rollins,-68.39299799999999,45.294392,NE,47632,4
MD,Criterion,-79.290199,39.404793,NE,13668,9
NY,Dutch Hill/Cohocton,-77.492393,42.530792,NE,15738,3
NY,Steel Winds II,-78.861,42.804893,NE,53858,3
NY,High Sheldon,-78.4076,42.724491,NE,23931,3
NY,Munnsville,-75.539795,42.953991,NE,36935,6
NY,Dutch Hill/Cohocton,-77.40149699999998,42.526493,NE,15755,3
NH,Granite Reliable Power,-71.298698,44.753193,NE,21454,1
NY,Maple Ridge,-75.513695,43.697891,NE,32892,0
NY,Maple Ridge,-75.56019599999998,43.720791,NE,32942,0
MA,Ipswich II,-70.846397,42.717293,NE,26272,8
MD,Roth Rock,-79.460594,39.26099,NE,48018,9
MA,MWRA Deer Island,-70.957298,42.347092,NE,32336,8
MD,Roth Rock,-79.4674,39.254791,NE,48034,9
NY,Noble Wethersfield,-78.265198,42.601391,NE,38046,3
NY,Maple Ridge,-75.528999,43.724991,NE,32964,0
NY,Orangeville Wind,-78.270935,42.729961,NE,39664,3
NY,Noble Chateaugay,-74.025398,44.877689,NE,37740,2
ME,Rollins,-68.392899,45.301792,NE,47640,4
ME,Oakfield Wind,-68.090073,46.062431,NE,39134,4
MD,Roth Rock,-79.447701,39.275494,NE,48017,9
NY,Maple Ridge (Lowville),-75.63029499999998,43.826492,NE,33076,0
MA,Berkshire East Ski Area,-72.866798,42.616291,NE,3472,7
NY,Maple Ridge (Lowville),-75.61219799999998,43.808292,NE,33064,0
NY,Howard,-77.511299,42.323994,NE,25563,3
NY,High Sheldon,-78.4272,42.761692,NE,23906,3
NY,Dutch Hill/Cohocton,-77.525497,42.443291,NE,15751,3
NY,High Sheldon,-78.406494,42.72039,NE,23945,3
ME,Rollins,-68.400803,45.28109,NE,47626,4
NY,High Sheldon,-78.424797,42.758991,NE,23916,3
NH,Granite Reliable Power,-71.28409599999998,44.726192,NE,21433,1
NY,Dutch Hill/Cohocton,-77.399498,42.529892,NE,15743,3
NY,High Sheldon,-78.394196,42.731293,NE,23947,3
NY,Maple Ridge (Lowville),-75.613098,43.775593,NE,33026,0
NY,Maple Ridge,-75.540497,43.731091,NE,32921,0
NY,Noble Bliss,-78.275696,42.556091,NE,37669,3
MA,Fairhaven Wind,-70.8722,41.637192,NE,17360,5
NY,Noble Clinton,-74.009895,44.920692,NE,37829,2
NY,Maple Ridge,-75.573097,43.73679,NE,32891,0
NY,Howard,-77.5215,42.316692,NE,25575,3
ME,Rollins,-68.364899,45.383392,NE,47644,4
NY,Noble Ellenburg,-73.969101,44.879292,NE,37856,2
MA,Philips Lightolier,-71.116997,41.74609,NE,42649,5
NY,Noble Wethersfield,-78.239998,42.60659,NE,38044,3
MA,Berkshire Wind,-73.274101,42.582291,NE,3473,7
NY,Noble Altona,-73.6455,44.809391,NE,37631,2
NY,High Sheldon,-78.40909599999998,42.776093,NE,23917,3
NY,Noble Chateaugay,-74.036697,44.886192,NE,37751,2
NY,Noble Ellenburg,-73.989998,44.863792,NE,37876,2
NY,Noble Chateaugay,-74.044495,44.914791,NE,37727,2
ME,Oakfield Wind,-68.08918800000001,46.02108,NE,39140,4
ME,Record Hill,-70.6315,44.665192,NE,45838,1
NY,High Sheldon,-78.382195,42.729591,NE,23952,3
NY,Maple Ridge,-75.533401,43.70229000000001,NE,32910,0
NH,Groton,-71.81289699999998,43.769993,NE,22211,12
NY,Maple Ridge (Lowville),-75.605202,43.802891,NE,33017,0
NY,Maple Ridge (Lowville),-75.594398,43.80069,NE,33050,0
NY,Noble Ellenburg,-73.932999,44.86729,NE,37860,2
NY,Noble Bliss,-78.243095,42.571392,NE,37652,3
ME,Rollins,-68.361298,45.400291,NE,47651,4
ME,Oakfield Wind,-68.089111,46.026131,NE,39142,4
NY,Orangeville Wind,-78.244087,42.708202,NE,39658,3
NY,Marble River,-73.938896,44.961693,NE,33090,2
NY,Maple Ridge,-75.537498,43.730392,NE,32954,0
ME,Oakfield Wind,-68.077919,46.02047,NE,39151,4
ME,Kibby Mountain II,-70.583199,45.331593,NE,27778,11
NY,Maple Ridge,-75.5914,43.771992,NE,32935,0
NH,Granite Reliable Power,-71.314499,44.774391,NE,21430,1
NY,Noble Wethersfield,-78.297798,42.601593,NE,38010,3
NY,Noble Altona,-73.64679699999998,44.815392,NE,37619,2
NY,Noble Wethersfield,-78.239998,42.603592,NE,38027,3
NY,High Sheldon,-78.403397,42.734894,NE,23904,3
NH,Groton,-71.830696,43.780891,NE,22223,12
NY,Hardscrabble,-74.899796,43.104893,NE,22892,6
NY,Orangeville Wind,-78.236397,42.725193,NE,39687,3
NY,Maple Ridge,-75.594398,43.772591,NE,32931,0
NY,Maple Ridge (Lowville),-75.608299,43.797489,NE,33001,0
NY,Noble Chateaugay,-74.031898,44.880192,NE,37741,2
MD,Fair Wind,-79.374527,39.338421,NE,17347,9
ME,"Kibby Mountain, phase I",-70.5438,45.400692,NE,27805,11
NY,Howard,-77.53429399999997,42.295994,NE,25559,3
NY,Maple Ridge,-75.56109599999998,43.778992,NE,32992,0
NY,Marble River,-73.913399,44.895592,NE,33145,2
MA,Hoosac,-73.040497,42.737591,NE,24727,7
NY,Noble Chateaugay,-74.03479,44.882301,NE,37759,2
NY,Noble Wethersfield,-78.285294,42.615791,NE,38024,3
NY,Noble Bliss,-78.227997,42.536591,NE,37686,3
NY,Noble Bliss,-78.23679399999997,42.572193,NE,37702,3
NY,Noble Bliss,-78.25349399999998,42.571392,NE,37705,3
NY,Noble Altona,-73.6343,44.83939,NE,37629,2
NY,High Sheldon,-78.396996,42.744392,NE,23951,3
NY,Noble Bliss,-78.2397,42.560093,NE,37649,3
NY,Maple Ridge (Lowville),-75.6073,43.81319000000001,NE,32998,0
NY,Maple Ridge,-75.534401,43.74799,NE,32952,0
NY,Noble Wethersfield,-78.291,42.604794,NE,37996,3
NY,Maple Ridge,-75.668396,43.807091,NE,32890,0
MD,Criterion,-79.353394,39.357292,NE,13648,9
NY,Marble River,-73.941399,44.98069,NE,33140,2
NY,Noble Chateaugay,-74.065895,44.918991,NE,37712,2
NY,Madison Windpower,-75.450096,42.896191,NE,32420,6
NY,Noble Bliss,-78.23159799999998,42.562092,NE,37672,3
NY,Orangeville Wind,-78.28439300000002,42.775494,NE,39694,3
NY,Marble River,-73.952301,44.935989,NE,33133,2
MA,Falmouth II,-70.621498,41.609291,NE,17363,5
ME,Record Hill,-70.631897,44.671593,NE,45833,1
ME,Mars Hill,-67.813599,46.538792,NE,33372,4
NY,Marble River,-73.93539399999997,44.914089,NE,33134,2
NY,Noble Altona,-73.648399,44.830391,NE,37577,2
NY,Noble Altona,-73.6595,44.817093,NE,37590,2
ME,Oakfield Wind,-68.07067099999999,46.062359,NE,39156,4
NY,Dutch Hill/Cohocton,-77.527794,42.44099,NE,15720,3
ME,Stetson Wind expansion,-67.958702,45.595989,NE,54234,4
NY,Noble Bliss,-78.291595,42.54129,NE,37685,3
NY,Orangeville Wind,-78.219498,42.716591,NE,39695,3
NY,Dutch Hill/Cohocton,-77.420998,42.542492,NE,15741,3
NY,Noble Chateaugay,-74.041801,44.92569,NE,37724,2
NY,Noble Clinton,-74.005096,44.91679,NE,37828,2
NY,Noble Altona,-73.628197,44.80769,NE,37621,2
